PLEIADES NEO 3          
1 48268U 21034A   26199.31808395  .00000881  00000+0  11851-3 0  9997
2 48268  97.8940 273.6371 0001407  96.7358 263.4015 14.81673466282263
PLEIADES NEO 4          
1 49070U 21073E   26199.28430664  .00000017  00000+0  87224-5 0  9998
2 49070  97.8937 273.5995 0001289  95.7612 264.3748 14.81673563265972
